{"type": "FeatureCollection", "features": [ {"type": "Feature", "properties": {"norad_id": 31823, "name": "FENGYUN 1C DEB", "group": "fengyun-1c-debris", "lat": -66.16217933804616, "lon": 112.48802982448655, "alt_km": 693.1973614947183, "timestamp": "2025-12-27T15:27:11.474977+00:00", "meta": {"OBJECT_NAME": "FENGYUN 1C DEB", "OBJECT_ID": "1999-025CHM", "EPOCH": "2025-12-26T11:55:00.969600", "MEAN_MOTION": 14.65927274, "ECCENTRICITY": 0.003733, "INCLINATION": 99.509, "RA_OF_ASC_NODE": 88.8675, "ARG_OF_PERICENTER": 178.2185, "MEAN_ANOMALY": 181.9154, "EPHEMERIS_TYPE": 0, "CLASSIFICATION_TYPE": "U", "NORAD_CAT_ID": 31823, "ELEMENT_SET_NO": 999, "REV_AT_EPOCH": 96919, "BSTAR": 0.0016908, "MEAN_MOTION_DOT": 9.293e-05, "MEAN_MOTION_DDOT": 0}, "tle": {"line1": "1 31823U 99025CHM 25360.49653900  .00009293  00000+0  16908-2 0  9992", "line2": "2 31823  99.5090  88.8675 0037330 178.2185 181.9154 14.65927274969191"}}, "geometry": {"type": "Point", "coordinates": [112.48802982448655, -66.16217933804616]}}, {"type": "Feature", "properties": {"norad_id": 31825, "name": "FENGYUN 1C DEB", "group": "fengyun-1c-debris", "lat": 24.982316601248222, "lon": -175.10409296077805, "alt_km": 909.4519075398821, "timestamp": "2025-12-27T15:27:11.474989+00:00", "meta": {"OBJECT_NAME": "FENGYUN 1C DEB", "OBJECT_ID": "1999-025CHP", "EPOCH": "2025-12-27T06:16:09.358752", "MEAN_MOTION": 14.21696241, "ECCENTRICITY": 0.01649645, "INCLINATION": 98.591, "RA_OF_ASC_NODE": 0.4842, "ARG_OF_PERICENTER": 296.0627, "MEAN_ANOMALY": 62.365, "EPHEMERIS_TYPE": 0, "CLASSIFICATION_TYPE": "U", "NORAD_CAT_ID": 31825, "ELEMENT_SET_NO": 999, "REV_AT_EPOCH": 95828, "BSTAR": 0.00073093041, "MEAN_MOTION_DOT": 1.798e-05, "MEAN_MOTION_DDOT": 0}, "tle": {"line1": "1 31825U 99025CHP 25361.26121943  .00001798  00000+0  73093-3 0  9998", "line2": "2 31825  98.5910   0.4842 0164964 296.0627  62.3650 14.21696241958283"}}, "geometry": {"type": "Point", "coordinates": [-175.10409296077805, 24.982316601248222]}}, {"type": "Feature", "properties": {"norad_id": 31826, "name": "FENGYUN 1C DEB", "group": "fengyun-1c-debris", "lat": -71.6680439219106, "lon": 145.11185412280338, "alt_km": 860.8489902150177, "timestamp": "2025-12-27T15:27:11.474999+00:00", "meta": {"OBJECT_NAME": "FENGYUN 1C DEB", "OBJECT_ID": "1999-025CHQ", "EPOCH": "2025-12-27T05:52:02.584704", "MEAN_MOTION": 14.19297037, "ECCENTRICITY": 0.01246301, "INCLINATION": 98.6269, "RA_OF_ASC_NODE": 351.9927, "ARG_OF_PERICENTER": 147.4745, "MEAN_ANOMALY": 225.2751, "EPHEMERIS_TYPE": 0, "CLASSIFICATION_TYPE": "U", "NORAD_CAT_ID": 31826, "ELEMENT_SET_NO": 999, "REV_AT_EPOCH": 96020, "BSTAR": 0.00036456709, "MEAN_MOTION_DOT": 7.85e-06, "MEAN_MOTION_DDOT": 0}, "tle": {"line1": "1 31826U 99025CHQ 25361.24447436  .00000785  00000+0  36457-3 0  9993", "line2": "2 31826  98.6269 351.9927 0124630 147.4745 225.2751 14.19297037960200"}}, "geometry": {"type": "Point", "coordinates": [145.11185412280338, -71.6680439219106]}}, {"type": "Feature", "properties": {"norad_id": 31829, "name": "FENGYUN 1C DEB", "group": "fengyun-1c-debris", "lat": -62.78808633702198, "lon": -26.902177803534816, "alt_km": 1001.0204303220271, "timestamp": "2025-12-27T15:27:11.475009+00:00", "meta": {"OBJECT_NAME": "FENGYUN 1C DEB", "OBJECT_ID": "1999-025CHT", "EPOCH": "2025-12-27T06:29:39.021792", "MEAN_MOTION": 13.88699061, "ECCENTRICITY": 0.016942, "INCLINATION": 98.8359, "RA_OF_ASC_NODE": 170.352, "ARG_OF_PERICENTER": 124.9521, "MEAN_ANOMALY": 52.2748, "EPHEMERIS_TYPE": 0, "CLASSIFICATION_TYPE": "U", "NORAD_CAT_ID": 31829, "ELEMENT_SET_NO": 999, "REV_AT_EPOCH": 94349, "BSTAR": 0.00040468615, "MEAN_MOTION_DOT": 5.07e-06, "MEAN_MOTION_DDOT": 0}, "tle": {"line1": "1 31829U 99025CHT 25361.27059053  .00000507  00000+0  40469-3 0  9993", "line2": "2 31829  98.8359 170.3520 0169420 124.9521  52.2748 13.88699061943499"}}, "geometry": {"type": "Point", "coordinates": [-26.902177803534816, -62.78808633702198]}}, {"type": "Feature", "properties": {"norad_id": 31830, "name": "FENGYUN 1C DEB", "group": "fengyun-1c-debris", "lat": -27.549831228581123, "lon": 111.78481969872179, "alt_km": 883.5718544707806, "timestamp": "2025-12-27T15:27:11.475019+00:00", "meta": {"OBJECT_NAME": "FENGYUN 1C DEB", "OBJECT_ID": "1999-025CHU", "EPOCH": "2025-12-24T06:08:59.338176", "MEAN_MOTION": 13.83469721, "ECCENTRICITY": 0.01836759, "INCLINATION": 99.1628, "RA_OF_ASC_NODE": 103.6538, "ARG_OF_PERICENTER": 283.5033, "MEAN_ANOMALY": 103.7457, "EPHEMERIS_TYPE": 0, "CLASSIFICATION_TYPE": "U", "NORAD_CAT_ID": 31830, "ELEMENT_SET_NO": 999, "REV_AT_EPOCH": 92899, "BSTAR": 0.0020237075, "MEAN_MOTION_DOT": 2.494e-05, "MEAN_MOTION_DDOT": 0}, "tle": {"line1": "1 31830U 99025CHU 25358.25624234  .00002494  00000+0  20237-2 0  9995", "line2": "2 31830  99.1628 103.6538 0183675 283.5033 103.7457 13.83469721928990"}}, "geometry": {"type": "Point", "coordinates": [111.78481969872179, -27.549831228581123]}}, {"type": "Feature", "properties": {"norad_id": 31834, "name": "FENGYUN 1C DEB", "group": "fengyun-1c-debris", "lat": 80.633404182431, "lon": 103.80822220463381, "alt_km": 812.6582425450706, "timestamp": "2025-12-27T15:27:11.475031+00:00", "meta": {"OBJECT_NAME": "FENGYUN 1C DEB", "OBJECT_ID": "1999-025CHY", "EPOCH": "2025-12-24T20:16:32.664000", "MEAN_MOTION": 14.03164507, "ECCENTRICITY": 0.01622839, "INCLINATION": 98.3667, "RA_OF_ASC_NODE": 218.0839, "ARG_OF_PERICENTER": 43.5121, "MEAN_ANOMALY": 317.872, "EPHEMERIS_TYPE": 0, "CLASSIFICATION_TYPE": "U", "NORAD_CAT_ID": 31834, "ELEMENT_SET_NO": 999, "REV_AT_EPOCH": 63880, "BSTAR": 0.00036532336, "MEAN_MOTION_DOT": 6.01e-06, "MEAN_MOTION_DDOT": 0}, "tle": {"line1": "1 31834U 99025CHY 25358.84482250  .00000601  00000+0  36532-3 0  9998", "line2": "2 31834  98.3667 218.0839 0162283  43.5121 317.8720 14.03164507638803"}}, "geometry": {"type": "Point", "coordinates": [103.80822220463381, 80.633404182431]}}, {"type": "Feature", "properties": {"norad_id": 31837, "name": "FENGYUN 1C DEB", "group": "fengyun-1c-debris", "lat": -76.31246072901112, "lon": 113.16570520851805, "alt_km": 585.2787185244551, "timestamp": "2025-12-27T15:27:11.475044+00:00", "meta": {"OBJECT_NAME": "FENGYUN 1C DEB", "OBJECT_ID": "1999-025CJB", "EPOCH": "2025-12-18T11:29:15.674496", "MEAN_MOTION": 14.82330224, "ECCENTRICITY": 0.00931656, "INCLINATION": 98.1015, "RA_OF_ASC_NODE": 68.0911, "ARG_OF_PERICENTER": 359.156, "MEAN_ANOMALY": 0.9481, "EPHEMERIS_TYPE": 0, "CLASSIFICATION_TYPE": "U", "NORAD_CAT_ID": 31837, "ELEMENT_SET_NO": 999, "REV_AT_EPOCH": 98444, "BSTAR": 0.00086076485, "MEAN_MOTION_DOT": 7.369e-05, "MEAN_MOTION_DDOT": 0}, "tle": {"line1": "1 31837U 99025CJB 25352.47865364  .00007369  00000+0  86076-3 0  9991", "line2": "2 31837  98.1015  68.0911 0093165 359.1560   0.9481 14.82330224984446"}}, "geometry": {"type": "Point", "coordinates": [113.16570520851805, -76.31246072901112]}}, {"type": "Feature", "properties": {"norad_id": 31838, "name": "FENGYUN 1C DEB", "group": "fengyun-1c-debris", "lat": 50.92713788805451, "lon": -116.96472689386974, "alt_km": 809.6271033232697, "timestamp": "2025-12-27T15:27:11.475055+00:00", "meta": {"OBJECT_NAME": "FENGYUN 1C DEB", "OBJECT_ID": "1999-025CJC", "EPOCH": "2025-12-17T08:26:31.079040", "MEAN_MOTION": 14.21147066, "ECCENTRICITY": 0.00383301, "INCLINATION": 98.7181, "RA_OF_ASC_NODE": 41.9841, "ARG_OF_PERICENTER": 82.4051, "MEAN_ANOMALY": 338.6922, "EPHEMERIS_TYPE": 0, "CLASSIFICATION_TYPE": "U", "NORAD_CAT_ID": 31838, "ELEMENT_SET_NO": 999, "REV_AT_EPOCH": 64642, "BSTAR": 0.00054487511, "MEAN_MOTION_DOT": 1.15e-05, "MEAN_MOTION_DDOT": 0}, "tle": {"line1": "1 31838U 99025CJC 25351.35174860  .00001150  00000+0  54488-3 0  9996", "line2": "2 31838  98.7181  41.9841 0038330  82.4051 338.6922 14.21147066646420"}}, "geometry": {"type": "Point", "coordinates": [-116.96472689386974, 50.92713788805451]}}, {"type": "Feature", "properties": {"norad_id": 31841, "name": "FENGYUN 1C DEB", "group": "fengyun-1c-debris", "lat": 37.76005338957312, "lon": -4.103731275111629, "alt_km": 990.3394681635018, "timestamp": "2025-12-27T15:27:11.475065+00:00", "meta": {"OBJECT_NAME": "FENGYUN 1C DEB", "OBJECT_ID": "1999-025CJF", "EPOCH": "2025-12-20T17:06:06.055776", "MEAN_MOTION": 14.03626742, "ECCENTRICITY": 0.03086895, "INCLINATION": 98.4167, "RA_OF_ASC_NODE": 162.8817, "ARG_OF_PERICENTER": 282.8098, "MEAN_ANOMALY": 136.7596, "EPHEMERIS_TYPE": 0, "CLASSIFICATION_TYPE": "U", "NORAD_CAT_ID": 31841, "ELEMENT_SET_NO": 999, "REV_AT_EPOCH": 59451, "BSTAR": 0.0011379131, "MEAN_MOTION_DOT": 2.684e-05, "MEAN_MOTION_DDOT": 0}, "tle": {"line1": "1 31841U 99025CJF 25354.71257009  .00002684  00000+0  11379-2 0  9994", "line2": "2 31841  98.4167 162.8817 0308689 282.8098 136.7596 14.03626742594514"}}, "geometry": {"type": "Point", "coordinates": [-4.103731275111629, 37.76005338957312]}}, {"type": "Feature", "properties": {"norad_id": 31843, "name": "FENGYUN 1C DEB", "group": "fengyun-1c-debris", "lat": -10.503678505964569, "lon": 119.31977307847013, "alt_km": 1402.4767602052461, "timestamp": "2025-12-27T15:27:11.475075+00:00", "meta": {"OBJECT_NAME": "FENGYUN 1C DEB", "OBJECT_ID": "1999-025CJH", "EPOCH": "2025-12-24T01:51:32.353920", "MEAN_MOTION": 13.34098922, "ECCENTRICITY": 0.0638989, "INCLINATION": 99.2841, "RA_OF_ASC_NODE": 297.7981, "ARG_OF_PERICENTER": 326.1893, "MEAN_ANOMALY": 29.9986, "EPHEMERIS_TYPE": 0, "CLASSIFICATION_TYPE": "U", "NORAD_CAT_ID": 31843, "ELEMENT_SET_NO": 999, "REV_AT_EPOCH": 64847, "BSTAR": 0.0068044238, "MEAN_MOTION_DOT": 0.00010896, "MEAN_MOTION_DDOT": 0}, "tle": {"line1": "1 31843U 99025CJH 25358.07745780  .00010896  00000+0  68044-2 0  9992", "line2": "2 31843  99.2841 297.7981 0638989 326.1893  29.9986 13.34098922648475"}}, "geometry": {"type": "Point", "coordinates": [119.31977307847013, -10.503678505964569]}}]}